#cP2023 10 11  0  0  0.00000000      96 ORBIT IGS20 HLM  IGS
## 2283 259200.00000000   900.00000000 60228 0.0000000000000
+   32   G01G02G03G04G05G06G07G08G09G10G11G12G13G14G15G16G17
+        G18G19G20G21G22G23G24G25G26G27G28G29G30G31G32  0  0
+          0  0  0  0  0  0  0  0  0  0  0  0  0  0  0  0  0
+          0  0  0  0  0  0  0  0  0  0  0  0  0  0  0  0  0
+          0  0  0  0  0  0  0  0  0  0  0  0  0  0  0  0  0
++         2  2  2  2  2  2  2  2  2  2  3  2  2  2  2  2  2
++         2  2  2  2  2  2  2  2  2  2  3  2  2  2  2  0  0
++         0  0  0  0  0  0  0  0  0  0  0  0  0  0  0  0  0
++         0  0  0  0  0  0  0  0  0  0  0  0  0  0  0  0  0
++         0  0  0  0  0  0  0  0  0  0  0  0  0  0  0  0  0
%c G  cc GPS ccc cccc cccc cccc cccc ccccc ccccc ccccc ccccc
%c cc cc ccc ccc cccc cccc cccc cccc ccccc ccccc ccccc ccccc
%f  1.2500000  1.025000000  0.00000000000  0.000000000000000
%f  0.0000000  0.000000000  0.00000000000  0.000000000000000
%i    0    0    0    0      0      0      0      0         0
%i    0    0    0    0      0      0      0      0         0
/* RAPID ORBIT COMBINATION FROM WEIGHTED AVERAGE OF:        
/* cod emr esa gfz grg jgx jpl ngs sio usn whu              
/* REFERENCED TO IGS TIME (IGST) AND TO WEIGHTED MEAN POLE: 
/* PCV:IGS20      OL/AL:FES2014b NONE     Y  ORB:CMB CLK:CMB
*  2023 10 11 15 45  0.00000000
PG01 -14419.607827  20722.155732   7325.378256    163.865330  6  4  8 109       
PG02 -15709.331278  16144.368088  14429.620643   -543.324528  4  7  6 111       
PG03 -18407.625840  12276.233533 -14757.953204    -85.107284  4  6  4  96       
PG04  -7675.560245  14368.491836 -20945.597834    181.465466  3  7  4  88       
PG05  26043.484265  -5327.805656   1089.483301   -146.104991  7  9  3 109       
PG06   9373.941020  13103.120560 -21030.410738    532.813684  5  4  6  93       
PG07  -3727.436576  24736.237976   8642.514839     43.226772  3  5  7 111       
PG08 -15130.813555   5080.719638  21210.082044   -146.605307  5  7  3 104       
PG09   1789.397568  20833.721500 -16435.299219    -35.367759  4  4  5  89       
PG10 -13861.333279 -11575.188224  19772.894783    -56.923837  5  4  5  78       
PG11  16112.019194     84.409621 -21087.288871   -410.306907  7  8  8  91       
PG12  21084.774893 -10107.151165 -12804.579355   -434.703539  4  7  4  89       
PG13  17807.846860   5383.715098  18840.148918    582.806528  6  6  4  47       
PG14   9978.023879  13791.603425  20450.644251    210.952761  6  5  5  81       
PG15  13888.534343  -7915.909959  20752.410165     86.080416  5  7  4  84       
PG16 -26558.136716  -1492.729620  -3639.918810   -440.767508  5  7  6 100       
PG17  12567.402244  23124.424842   3478.239481    723.841163     4  5  67       
PG18   3206.676472 -24256.475969  10110.291294   -445.545771  6 10  6  89       
PG19  16800.123848  20012.277853  -5891.456896    383.531538  4  3  5  96       
PG20  24226.359092    481.119625 -10612.896975    407.354834  4  8  5 125       
PG21 -16323.150824  12329.089789  16928.772188    147.004816  3  6  6 114       
PG22  16221.219254  11770.062459  17741.950724    104.899686  5  5  2  85       
PG23    173.415357 -15030.798182  21893.119750     81.110375  4  4  5  61       
PG24  14858.543582 -18038.115485  11826.951819   -343.335649  7  8  6  83       
PG25   8312.046630 -15607.494441 -20057.695219    472.203806  6  7  5  43       
PG26 -22639.784895  -5432.258224 -13229.261577    223.794233  6  7  4  86       
PG27 -19892.154093  -8187.227222  15591.536186    -53.513403  4  5  5  81       
PG28  -9147.551983 -15030.402056 -19920.909665    -23.710337  5  8  6  90       
PG29   -148.695688 -20826.215505 -16466.294968   -609.996318  8  8  6  76       
PG30   4171.343370  20616.950430  16182.334095   -479.600492  5  6  6 102       
PG31 -14527.262374  -5301.374813 -21796.605302   -224.525225  4  8  6  98       
PG32 -16518.213032 -20936.062536   -329.426854   -571.163404  6  6  6  87       
*  2023 10 11 16  0  0.00000000
PG01 -14202.207296  19685.954554  10022.604995    163.865057  5  5  9  94       
PG02 -15396.219770  14472.185879  16483.823255   -543.320021  4  6  6 101       
PG03 -19950.153611  12361.192422 -12474.560264    -85.086947  4  7  4  89       
PG04  -9191.612385  12462.476280 -21557.968380    181.475194  2  7  4  93       
PG05  26071.309155  -5100.664645  -1774.351346   -146.105674  6  9  4 108       
PG06   8446.264915  15266.028660 -19931.505684    532.806269  5  5  6  71       
PG07  -4286.116733  25369.219966   5946.923850     43.217386  3  5  7 106       
PG08 -16652.349633   3231.948151  20457.126770   -146.607090  5  7  4  98       
PG09    390.310243  19442.110027 -18157.081231    -35.358106  3  4  5 100       
PG10 -11623.055378 -11999.441246  20910.978909    -56.925088  5  3  5  86       
PG11  15173.091905   2345.942691 -21650.142499   -410.322542  6  9  7 104       
PG12  22388.469965 -10016.968221 -10373.815629   -434.707580  4  7  4  99       
PG13  18784.548152   7236.952208  17237.897249    582.811010  6  7  4  80       
PG14   7629.079468  14169.573004  21175.869164    210.962806  6  5  6  79       
PG15  15639.361911  -6208.585433  20113.808794     86.083703  5  7  4  97       
PG16 -26042.346119  -1733.351903  -6399.562148   -440.762015  5  7  6  98       
PG17  12089.737142  22838.188084   6291.315833    723.841290     5  4  66       
PG18   3778.425541 -25112.528469   7459.402337   -445.556410  6 11  5  95       
PG19  16903.298343  20525.394121  -3095.501030    383.536456  3  4  5  96       
PG20  23017.725392   1163.083807 -12992.506922    407.352835  4  8  6 118       
PG21 -15959.208522  10378.320082  18633.733578    147.003855  4  6  6 109       
PG22  14191.084425  12047.234341  19293.613456    104.893074  5  5  2  77       
PG23   2611.969053 -15453.926471  21422.642253     81.115516  4  4  6  67       
PG24  14725.278066 -16457.023025  14059.054625   -343.344496  7  8  6  78       
PG25  10473.263236 -15852.758225 -18768.447999    472.205499  6  7  6  76       
PG26 -21127.348619  -6020.251253 -15299.873584    223.792193  6  7  4  81       
PG27 -20837.781361  -9594.723835  13480.017390    -53.518704  4  5  5  94       
PG28  -8324.121841 -17072.228710 -18590.813954    -23.716368  5  9  6  84       
PG29   1091.291880 -19278.782771 -18234.579283   -609.996670  8  8  6  86       
PG30   3318.912395  22147.195788  14199.319829   -479.597190  5  6  6  82       
PG31 -13581.340346  -7562.007658 -21701.538115   -224.525721  4  8  6  95       
PG32 -16266.127743 -21009.227490   2509.662868   -571.168277  6  6  6  99       
*  2023 10 11 16 15  0.00000000
PG01 -13948.490102  18352.615216  12541.389667    163.864697  6  5  9 101       
PG02 -15125.291561  12581.088716  18261.890499   -543.315752  4  6  6 104       
PG03 -21222.589714  12471.793215  -9976.936086    -85.066585  4  7  4  82       
PG04 -10836.064320  10602.680955 -21798.691651    181.484977  2  7  5  91       
PG05  25800.464851  -4792.222257  -4607.884947   -146.107043  6  9  4 126       
PG06   7686.720581  17340.365730 -18486.860844    532.798896  5  5  5  70       
PG07  -4722.604624  25731.938007   3147.244189     43.208074  4  8  7 102       
PG08 -18191.671383   1542.637104  19352.746945   -146.609864  4  7  5  93       
PG09  -1200.213828  17997.342363 -19567.989909    -35.348475  3  5  5 100       
PG10  -9304.662267 -12572.759063  21697.406201    -56.926671  4  4  5  68       
PG11  14340.419240   4693.508086 -21839.689406   -410.338307  5  9  6 105       
PG12  23415.932731  -9951.863135  -7765.947079   -434.711134  3  8  4  98       
PG13  19745.330751   8868.504939  15337.052220    582.815014  6  7  4  64       
PG14   5240.254393  14676.779309  21538.226522    210.972821  6  5  6  96       
PG15  17392.422102  -4647.112557  19115.655158     86.087350  5  7  4  85       
PG16 -25241.187435  -2039.158382  -9052.871159   -440.756553  5  8  5  98       
PG17  11404.635300  22334.640501   8996.582317    723.840927     5  4  75       
PG18   4205.432588 -25704.992314   4678.791209   -445.567039  6 11  4  88       
PG19  16845.016413  20778.354770   -247.517996    383.541018  3  4  5  81       
PG20  21606.799447   2001.945202 -15145.900927    407.351314  3  9  6  93       
PG21 -15659.397084   8251.254923  20020.904210    147.002943  4  6  6 107       
PG22  12028.903274  12449.958039  20522.455829    104.886527  5  5  2  91       
PG23   4953.557484 -15990.981385  20582.874973     81.120711  4  5  6  63       
PG24  14614.097483 -14634.562075  16038.498190   -343.353431  6  8  6  72       
PG25  12465.005209 -16170.512219 -17161.524768    472.207216  6  7  6  78       
PG26 -19436.468699  -6743.368582 -17113.338663    223.790145  7  7  5  90       
PG27 -21685.102914 -10761.255304  11137.724249    -53.524007  5  6  5  98       
PG28  -7653.745260 -18992.120454 -16941.435438    -23.722460  5  9  6  95       
PG29   2525.414750 -17657.824808 -19689.031320   -609.996453  8  8  6  83       
PG30   2612.244161  23491.692941  11970.754490   -479.593853  5  7  6  83       
PG31 -12761.870351  -9842.844317 -21238.652308   -224.525919  4  8  6 103       
PG32 -15802.904393 -20862.931945   5306.191020   -571.173129  5  6  5  94       
EOF
